C/2017 K6 (Jacques),e,57.2407,85.0058,303.7526,1098,0.0000271,0.99818137,0.0000,01/03.5753/2018,2000,g 11.0,4.0
# From MPC xxxxx
C/2017 M3 (PANSTARRS),e,77.5735,7.0269,110.3156,166.7736,0.0004576,0.97208627,0.0000,04/28.1437/2017,2000,g 10.5,4.0
# From MPC xxxxx
C/2017 M4 (ATLAS),h,01/17.9428/2019,105.6488,65.8939,167.6088,1.001313,3.253447,2000,6.0,4.0
# From MPC118841
C/2017 M5 (TOTAS),h,06/04.3899/2018,15.8735,216.2860,92.7895,1.005495,5.996425,2000,6.5,4.0
# From MPC114599
C/2017 O1 (ASASSN),e,39.9326,25.7426,20.8363,359.5659,0.0001446,0.99584763,0.0000,10/15.1074/2017,2000,g 11.0,4.0
# From MPC114599
P/2017 P1 (PANSTARRS),e,7.6943,221.3934,122.3954,7.900231,0.0443858,0.31093902,49.3475,07/06.0/2021,2000,g 10.0,4.0
# From MPC114599
C/2017 P2 (PANSTARRS),e,50.0500,165.4673,132.4139,2338,0.0000087,0.99894434,0.0000,12/06.5583/2017,2000,g 10.0,4.0
# From MPC114599
P/2017 R1 (PANSTARRS),e,2.5744,143.6164,178.6401,4.135050,0.1172149,0.19569883,181.3582,07/06.0/2021,2000,g 13.5,4.0
# From MPC108595
C/2017 S2 (PANSTARRS),e,12.6745,62.3776,306.0001,20.57512,0.0105606,0.82447397,14.8473,07/06.0/2021,2000,g 13.0,4.0
# From MPC114599
C/2017 S3 (PANSTARRS),h,08/16.1466/2018,99.1810,171.2631,255.8298,1.000060,0.207524,2000,11.0,4.0
# From MPC114599
P/2017 S5 (ATLAS),e,11.8525,252.3671,99.8933,3.167541,0.1748319,0.31435879,251.3478,07/06.0/2021,2000,g 14.0,4.0
# From MPC109591
C/2017 S6 (Catalina),h,02/26.2724/2018,152.8674,131.0428,134.8533,1.000688,1.546068,2000,12.5,4.0
# From MPC114599
C/2017 S7 (Lemmon),e,124.2269,262.7661,187.5493,25627,0.0000002,0.99970318,0.0000,05/24.5972/2017,2000,g  7.0,4.0
# From MPC114599
P/2017 S8 (PANSTARRS),e,29.8318,191.5682,254.7622,2.780790,0.2125455,0.39161303,267.0943,07/06.0/2021,2000,g 16.0,4.0
# From MPC107050
P/2017 S9 (PANSTARRS),e,14.1439,146.2232,237.6999,3.153626,0.1759903,0.30528194,254.1066,07/06.0/2021,2000,g 17.0,4.0
# From MPC114600
C/2017 T1 (Heinze),e,96.8545,102.3667,96.9651,14903,0.0000005,0.99996083,0.0000,02/21.0188/2018,2000,g 14.5,4.0
# From MPC xxxxx
C/2017 T2 (PANSTARRS),e,57.2259,64.3770,92.9990,2613,0.0000074,0.99938180,0.0000,05/04.9082/2020,2000,g  5.0,4.0
# From MPC114600
C/2017 T3 (ATLAS),e,88.1084,230.1168,246.8293,1184,0.0000242,0.99930340,0.0000,07/18.8546/2018,2000,g 10.0,4.0
# From MPC115882
P/2017 TW13 (Lemmon),e,44.8502,322.2984,119.9658,7.141524,0.0516437,0.70954744,57.3802,07/06.0/2021,2000,g 15.0,2.0
# From MPC114600
C/2017 U2 (Fuls),e,95.3868,149.7066,147.8172,2986,0.0000060,0.99775353,0.0000,08/28.1875/2017,2000,g  9.0,4.0
# From MPC114600
P/2017 U3 (PANSTARRS),e,15.9177,165.1090,296.7471,4.929008,0.0900668,0.09890891,73.1926,07/06.0/2021,2000,g 11.0,4.0
# From MPC xxxxx
C/2017 U4 (PANSTARRS),h,09/23.0511/2018,158.2130,245.9380,159.0122,1.001867,7.720718,2000,7.0,4.0
# From MPC114600
C/2017 U5 (PANSTARRS),e,18.9764,163.0855,262.0105,16.87760,0.0142147,0.74409090,18.4143,07/06.0/2021,2000,g 12.0,4.0
# From MPEC 2021-N06
C/2017 U7 (PANSTARRS),h,09/14.1884/2019,142.5912,276.2447,326.3214,1.000487,6.423657,2000,8.3,2.0
# From MPC114600
C/2017 W2 (Leonard),e,98.1991,312.8413,168.9995,13.64863,0.0195466,0.71055334,26.2499,07/06.0/2021,2000,g 11.0,4.0
# From MPC114601
P/2017 W3 (Gibbs),e,18.1670,210.2695,327.8351,7.841456,0.0448858,0.50716935,54.9108,07/06.0/2021,2000,g 10.5,4.0
# From MPC115883
C/2017 X1 (PANSTARRS),e,31.3078,251.1314,283.2743,31.25863,0.0056396,0.85062043,6.2995,07/06.0/2021,2000,g 10.0,4.0
# From MPC117069
C/2017 Y1 (PANSTARRS),e,55.2656,307.5282,134.2844,1771,0.0000132,0.99790534,0.0000,08/31.2242/2017,2000,g 11.5,4.0
# From MPC xxxxx
C/2017 Y2 (PANSTARRS),h,11/04.7985/2020,128.4120,65.9943,147.8994,1.000733,4.632332,2000,15.0,4.0
# From MPC111770
P/2017 Y3 (Leonard),e,27.5578,153.8433,67.6093,9.842613,0.0319182,0.86997862,39.6304,07/06.0/2021,2000,g 16.5,4.0
# From MPC114601
C/2018 A1 (PANSTARRS),e,53.6129,336.6583,96.2391,25.09656,0.0078394,0.90385979,10.6176,07/06.0/2021,2000,g 12.5,4.0
# From MPC xxxxx
C/2018 A3 (ATLAS),e,139.5393,194.2935,86.3778,442.0331,0.0001061,0.99258983,0.0000,01/12.4011/2019,2000,g  8.5,4.0
# From MPC114601
C/2018 A4 (PANSTARRS),e,3.1485,97.6228,356.0131,12.19497,0.0231437,0.80336064,26.4876,07/06.0/2021,2000,g 14.0,4.0
# From MPC109147
P/2018 A5 (PANSTARRS),e,23.5843,87.8177,359.5415,5.633599,0.0737098,0.52240908,101.8662,07/06.0/2021,2000,g 15.0,4.0
# From MPEC 2021-N06
C/2018 A6 (Gibbs),e,77.0304,340.3768,264.5200,15.24882,0.0165520,0.80201778,11.9709,07/06.0/2021,2000,g  9.0,4.0
# From MPC118841
C/2018 B1 (Lemmon),h,03/29.1545/2018,162.4201,133.1907,68.3186,1.000378,5.118080,2000,9.0,4.0
# From MPC114601
P/2018 C1 (Lemmon-Read),e,5.1179,270.3711,235.7066,5.654331,0.0733048,0.53265623,89.9286,07/06.0/2021,2000,g 13.5,4.0
# From MPC114601
C/2018 C2 (Lemmon),h,06/01.4624/2018,34.4605,91.1592,134.1077,1.000599,1.959097,2000,13.0,4.0
# From MPC xxxxx
C/2018 DO4 (Lemmon),e,160.4652,251.2736,176.1786,25.65818,0.0075834,0.90603898,5.2171,07/06.0/2021,2000,g 11.0,4.0
# From MPC114602
C/2018 E1 (ATLAS),e,72.5166,146.8678,299.3691,53.90527,0.0024903,0.94990931,2.9276,07/06.0/2021,2000,g 10.5,4.0
# From MPC114602
C/2018 E2 (Barros),e,97.6912,67.1887,277.4593,3994,0.0000039,0.99901870,0.0000,12/24.0316/2017,2000,g 10.5,4.0
# From MPC114602
C/2018 EN4 (NEOWISE),e,81.7131,136.1372,35.0239,18.18043,0.0127145,0.92011250,14.3111,07/06.0/2021,2000,g 15.0,4.0
# From MPC114602
C/2018 EF9 (Lemmon),e,84.6284,172.5600,72.6201,525.7731,0.0000818,0.99703629,0.0000,05/22.5642/2018,2000,g 18.0,2.0
# From MPC115883
C/2018 F1 (Grauer),e,46.0778,177.2758,71.6273,274.3294,0.0002169,0.98908333,0.0000,12/13.5218/2018,2000,g 11.5,4.0
# From MPC110084
C/2018 F3 (Johnson),p,08/15.2314/2017,105.5348,293.0113,2.483172,173.0311,2000,13.0,4.0
# From MPC xxxxx
C/2018 F4 (PANSTARRS),h,12/04.0898/2019,78.0907,26.5148,263.2301,1.001151,3.440836,2000,11.0,6.0
# From MPC114602
P/2018 H2 (PANSTARRS),e,7.3891,68.3611,119.9517,4.390898,0.1071209,0.54029625,135.0511,07/06.0/2021,2000,g 16.6,2.0
# From MPC114602
C/2018 K1 (Weiland),e,164.1951,260.0641,325.1213,30.03380,0.0059881,0.93731242,7.1025,07/06.0/2021,2000,g 14.9,4.0
# From MPC xxxxx
C/2018 KJ3 (Lemmon),e,136.7056,91.6085,217.6789,886.3827,0.0000373,0.99590525,0.0000,09/09.7942/2019,2000,g 12.2,2.0
# From MPC114602
P/2018 L1 (PANSTARRS),e,10.5904,268.6320,18.0021,3.651419,0.1412575,0.48270410,136.5156,07/06.0/2021,2000,g 15.0,4.0
# From MPC xxxxx
C/2018 L2 (ATLAS),e,67.3650,243.0221,56.2844,261.1666,0.0002335,0.99344009,0.0000,12/02.6843/2018,2000,g 10.0,4.0
# From MPC114603
P/2018 L4 (PANSTARRS),e,26.6255,145.1520,140.5874,4.941783,0.0897178,0.66000591,96.0158,07/06.0/2021,2000,g 17.5,4.0
# From MPC119996
P/2018 L5 (Leonard),e,2.2081,219.1067,93.8455,3.628082,0.1426226,0.36473098,165.1191,07/06.0/2021,2000,g 14.5,4.0
# From MPC117070
C/2018 M1 (Catalina),e,37.2985,339.4109,14.1767,21.38641,0.0099655,0.93909533,10.8779,07/06.0/2021,2000,g 15.5,4.0
# From MPC112393
C/2018 N1 (NEOWISE),e,159.4415,292.4545,354.6524,360.5025,0.0001440,0.99636476,0.0000,08/02.0174/2018,2000,g 15.5,4.0
# From MPEC 2021-N06
C/2018 N2 (ASASSN),h,11/10.9903/2019,77.5317,25.2352,24.4110,1.000184,3.125002,2000,6.0,4.0
# From MPC114603
C/2018 O1 (ATLAS),e,154.0345,87.6660,162.6154,27.96301,0.0066654,0.94418279,6.9275,07/06.0/2021,2000,g 17.0,4.0
# From MPC114603
P/2018 P3 (PANSTARRS),e,8.9099,59.1749,305.8888,3.005848,0.1891271,0.41666394,189.1193,07/06.0/2021,2000,g 14.5,4.0
# From MPC114603
P/2018 P4 (PANSTARRS),e,23.1083,353.0679,8.2579,6.674370,0.0571595,0.45054566,55.4904,07/06.0/2021,2000,g 12.0,4.0
# From MPC xxxxx
C/2018 P5 (PANSTARRS),e,7.2514,216.2349,131.7645,12.80993,0.0214973,0.64257612,18.4814,07/06.0/2021,2000,g 11.0,4.0
# From MPC118841
C/2018 R3 (Lemmon),e,69.7298,324.6422,112.8101,1611,0.0000152,0.99920038,0.0000,06/07.2876/2019,2000,g  9.5,4.0
# From MPC112393
C/2018 R4 (Fuls),e,11.6825,298.4465,345.3001,334.1730,0.0001613,0.99486614,0.0000,03/03.5470/2018,2000,g 14.0,4.0
# From MPC114603
C/2018 R5 (Lemmon),e,103.7484,171.1214,178.0700,22.79218,0.0090579,0.84098105,8.2244,07/06.0/2021,2000,g 11.5,4.0
# From MPEC 2021-N06
C/2018 U1 (Lemmon),h,11/02.9844/2021,108.2965,75.4805,180.4519,1.001308,4.993053,2000,5.0,4.0
# From MPC114604
C/2018 V1 (Machholz-Fujikawa-Iwamoto),h,12/03.1634/2018,144.0550,128.8837,88.8631,1.000335,0.386827,2000,12.0,4.0
# From MPC115884
C/2018 V2 (ATLAS),e,159.1679,357.0860,318.9448,25.08252,0.0078460,0.90120712,7.4763,07/06.0/2021,2000,g 15.0,4.0
# From MPC114604
P/2018 VN2 (Leonard),e,18.2511,226.4983,138.7568,4.064473,0.1202812,0.47862978,135.4442,07/06.0/2021,2000,g 15.0,4.0
# From MPC xxxxx
A/2018 V3,e,164.9779,308.6568,3.5391,122.9823,0.0007227,0.98909695,0.0000,09/08.6989/2019,2000,g 15.7,2.0
# From MPC114604
C/2018 V4 (Africano),e,69.0048,78.3537,359.9332,204.6447,0.0003367,0.98438023,0.0000,03/01.3821/2019,2000,g 12.5,4.0
# From MPC xxxxx
P/2018 V5 (Trujillo-Sheppard),e,10.5868,171.2874,260.6752,8.954231,0.0367842,0.47474511,37.0503,07/06.0/2021,2000,g 12.5,4.0
# From MPC xxxxx
C/2018 W1 (Catalina),e,83.2825,233.6014,251.2445,21.68984,0.0097571,0.93726808,7.6722,07/06.0/2021,2000,g 15.5,2.0
# From MPC xxxxx
C/2018 W2 (Africano),h,09/05.5876/2019,116.6193,181.8396,157.9801,1.000393,1.455645,2000,9.5,4.0
# From MPC119996
C/2018 X2 (Fitzsimmons),e,23.0693,340.8302,162.0410,145.3989,0.0005622,0.98537608,0.0000,07/08.3303/2019,2000,g 12.0,4.0
# From MPC114604
C/2018 X3 (PANSTARRS),e,43.3747,78.8954,359.7432,12.37298,0.0226461,0.78215923,20.7988,07/06.0/2021,2000,g 14.5,4.0
# From MPC118842
C/2018 Y1 (Iwamoto),e,160.3989,147.5142,358.0044,138.9986,0.0006014,0.99075884,0.0000,02/06.9341/2019,2000,g 11.5,4.0
# From MPC114605
P/2018 Y2 (Africano),e,11.6825,297.2614,162.3201,7.459555,0.0483765,0.47862418,44.3341,07/06.0/2021,2000,g 11.5,4.0
# From MPC114605
P/2019 A1 (PANSTARRS),e,13.7443,312.3020,150.7647,5.121517,0.0850367,0.56835262,84.9870,07/06.0/2021,2000,g 16.0,4.0
# From MPC xxxxx
